     2.11           N: GPS NAV DATA                         RINEX VERSION / TYPE
teqc  2019Feb25     CORS-ADM Account    20260515 21:45:02UTCPGM / RUN BY / DATE
Linux 2.4.21-27.ELsmp|Opteron|gcc|Linux 64|=+               COMMENT
     2.10           N: GPS NAV DATA                         COMMENT
rvacn.e(1404.07)                        2026-05-15T21:27 UTCCOMMENT
This file contains the validated broadcast navigation       COMMENT
messages from the following files:                          COMMENT
aaaa1350.26n, abmf135u.26n, abpo135u.26n, albh135u.26n,     COMMENT
alic135u.26n, areq135u.26n, baie135u.26n, brew135u.26n,     COMMENT
brst135u.26n, brux135u.26n, bshm135u.26n, bucu135u.26n,     COMMENT
cebr135u.26n, chpi135u.26n, chum135u.26n, chur135u.26n,     COMMENT
ckis135u.26n, coco135u.26n, cro1135u.26n, darw135u.26n,     COMMENT
dav1135u.26n, dgar135u.26n, djig135u.26n, dlf1135u.26n,     COMMENT
drao135u.26n, dubo135u.26n, ebre135u.26n, fair135u.26n,     COMMENT
falk135u.26n, flin135u.26n, glps135u.26n, gode135u.26n,     COMMENT
guam135u.26n, harb135u.26n, hers135u.26n, hlfx135u.26n,     COMMENT
hob2135u.26n, hofn135u.26n, holb135u.26n, hrao135u.26n,     COMMENT
iisc135u.26n, iqal135u.26n, ista135u.26n, joze135u.26n,     COMMENT
jplm135u.26n, karr135u.26n, kat1135u.26n, kiri135u.26n,     COMMENT
kiru135u.26n, kokb135u.26n, koug135u.26n, kour135u.26n,     COMMENT
lmmf135u.26n, lpal135u.26n, m0se135u.26n, mac1135u.26n,     COMMENT
maju135u.26n, mal2135u.26n, mar6135u.26n, mas1135u.26n,     COMMENT
mat1135u.26n, mate135u.26n, maw1135u.26n, mcm4135u.26n,     COMMENT
mdo1135u.26n, medi135u.26n, met3135u.26n, mkea135u.26n,     COMMENT
mobs135u.26n, mro1135u.26n, nain135u.26n, nano135u.26n,     COMMENT
naur135u.26n, nico135u.26n, nklg135u.26n, nlib135u.26n,     COMMENT
nnor135u.26n, not1135u.26n, nrc1135u.26n, onsa135u.26n,     COMMENT
orid135u.26n, palm135u.26n, pert135u.26n, picl135u.26n,     COMMENT
pie1135u.26n, pimo135u.26n, pohn135u.26n, prds135u.26n,     COMMENT
ptvl135u.26n, qaq1135u.26n, qiki135u.26n, reso135u.26n,     COMMENT
reun135u.26n, reyk135u.26n, riga135u.26n, sant135u.26n,     COMMENT
sask135u.26n, sch2135u.26n, scor135u.26n, seyg135u.26n,     COMMENT
solo135u.26n, stj3135u.26n, stjo135u.26n, stpm135u.26n,     COMMENT
suth135u.26n, suwn135u.26n, sydn135u.26n, thtg135u.26n,     COMMENT
thu2135u.26n, tid1135u.26n, tow2135u.26n, tuva135u.26n,     COMMENT
unbj135u.26n, usud135u.26n, vacs135u.26n, vald135u.26n,     COMMENT
vill135u.26n, vis0135u.26n, warn135u.26n, whit135u.26n,     COMMENT
will135u.26n, wsrt135u.26n, wtzr135u.26n, xmis135u.26n,     COMMENT
yar2135u.26n, yarr135u.26n, yebe135u.26n, yell135u.26n,     COMMENT
zim2135u.26n, zimm135u.26n                                  COMMENT
    1.1180D-08  2.2350D-08 -5.9600D-08 -1.1920D-07          ION ALPHA
    9.8300D+04  1.3110D+05 -1.3110D+05 -5.8980D+05          ION BETA
    1.862645149230D-09 1.776356839400D-15    61440     2419 DELTA-UTC: A0,A1,T,W
                                                            END OF HEADER
13 26  5 15  2  0  0.0 3.003906458616D-04 2.626165951369D-11 0.000000000000D+00
    1.300000000000D+02 4.943750000000D+01 4.267320608175D-09 2.512160181852D+00
    2.576038241386D-06 2.267876407132D-04 1.260824501514D-05 5.153620145798D+03
    4.392000000000D+05 7.450580596924D-09-3.252523774156D-01 3.725290298462D-08
    9.596848471374D-01 1.332812500000D+02-1.567608601968D+00-7.806039438590D-09
   -3.814444601214D-10 1.000000000000D+00 2.418000000000D+03 0.000000000000D+00
    4.000000000000D+00 6.300000000000D+01-8.381903171539D-09 1.300000000000D+02
    4.320180000000D+05 4.000000000000D+00
14 26  5 15  2  0  0.0 7.462957873940D-04 1.023181539495D-12 0.000000000000D+00
    7.600000000000D+01 7.915625000000D+01 4.593405619496D-09-7.971286539395D-01
    3.902241587639D-06 7.117437664419D-03 1.325830817223D-05 5.153664754868D+03
    4.392000000000D+05 2.048909664154D-07-2.724765266096D-01 1.490116119385D-08
    9.425908629672D-01 1.160312500000D+02-2.711238129288D+00-8.022119867778D-09
   -4.078741324519D-10 1.000000000000D+00 2.418000000000D+03 0.000000000000D+00
    2.000000000000D+00 0.000000000000D+00-7.916242000000D-09 7.600000000000D+01
    4.320600000000D+05 4.000000000000D+00
16 26  5 15  2  0  0.0 2.632429823279D-04 6.934897101019D-12 0.000000000000D+00
    7.000000000000D+01 9.375000000000D+01 4.150530029093D-09-2.380655977043D+00
    4.781410098076D-06 1.498821517453D-02 1.180917024612D-05 5.153689147949D+03
    4.392000000000D+05 1.285225152969D-07-1.998684966623D-01-9.126961231232D-08
    9.584042613159D-01 1.505312500000D+02 9.343214464214D-01-7.558886286526D-09
   -1.242908915002D-10 1.000000000000D+00 2.418000000000D+03 0.000000000000D+00
    2.000000000000D+00 0.000000000000D+00-1.024454832077D-08 7.000000000000D+01
    4.320180000000D+05 4.000000000000D+00
17 26  5 15  2  0  0.0-1.351628452539D-04-8.071765478235D-12 0.000000000000D+00
    5.800000000000D+01 1.185000000000D+02 4.625192657839D-09 2.828294329857D+00
    6.224960088730D-06 1.258037181105D-02 2.581626176834D-06 5.153637693405D+03
    4.392000000000D+05 8.195638656616D-08 8.160497233122D-01 2.048909664154D-08
    9.583973343988D-01 3.289062500000D+02-1.110702657270D+00-8.254629552740D-09
    2.760829285336D-10 1.000000000000D+00 2.418000000000D+03 0.000000000000D+00
    2.800000000000D+00 0.000000000000D+00-1.071020960808D-08 5.800000000000D+01
    4.320180000000D+05 4.000000000000D+00
18 26  5 15  2  0  0.0-3.523654304445D-04 9.208633855451D-12 0.000000000000D+00
    1.210000000000D+02-9.631250000000D+01 4.355895726255D-09 8.480720769661D-01
   -5.017966032028D-06 5.972199840471D-03 3.175809979439D-06 5.153629886627D+03
    4.392000000000D+05-1.862645149231D-08 1.827914371376D+00 1.080334186554D-07
    9.709798050234D-01 3.241875000000D+02-2.872486839452D+00-8.323203837706D-09
   -2.610823036973D-10 1.000000000000D+00 2.418000000000D+03 0.000000000000D+00
    2.000000000000D+00 0.000000000000D+00-8.381903171539D-09 3.770000000000D+02
    4.320220000000D+05 4.000000000000D+00
19 26  5 15  2  0  0.0 6.997846066952D-04 9.094947017729D-13 0.000000000000D+00
    7.600000000000D+01 1.016875000000D+02 4.684480841716D-09-1.731686146582D+00
    5.278736352921D-06 1.150419097394D-02 2.827495336533D-06 5.153739738464D+03
    4.392000000000D+05-1.452863216400D-07 8.598838472366D-01-1.490116119385D-07
    9.575226205691D-01 3.263125000000D+02 2.973250976340D+00-8.477853136612D-09
    4.925205154564D-10 1.000000000000D+00 2.418000000000D+03 0.000000000000D+00
    2.000000000000D+00 0.000000000000D+00-1.536682248116D-08 7.600000000000D+01
    4.320180000000D+05 4.000000000000D+00
20 26  5 15  2  0  0.0 1.546670682728D-04 1.659827830736D-11 0.000000000000D+00
    1.530000000000D+02 3.637500000000D+01 4.926990943235D-09-7.942727876897D-01
    1.955777406693D-06 2.070789108984D-03 7.849186658859D-06 5.153594482422D+03
    4.392000000000D+05-4.470348358154D-08-2.402830604019D+00-3.725290298462D-09
    9.610313418072D-01 2.310625000000D+02-1.846092357362D+00-8.139981920063D-09
    6.282404544509D-10 1.000000000000D+00 2.418000000000D+03 0.000000000000D+00
    2.000000000000D+00 0.000000000000D+00-6.984919309616D-09 1.530000000000D+02
    4.320180000000D+05 4.000000000000D+00
21 26  5 15  2  0  0.0 4.143412224948D-04-1.023181539495D-12 0.000000000000D+00
    8.200000000000D+01-8.371875000000D+01 4.141601085738D-09-1.114359484334D+00
   -4.542991518974D-06 7.795707788318D-04 1.247227191925D-05 5.153555637360D+03
    4.392000000000D+05 2.235174179077D-08 2.875232923941D+00 7.450580596924D-09
    9.639417046812D-01 1.380000000000D+02-1.509877486286D-01-7.780681239462D-09
    3.067984936744D-10 1.000000000000D+00 2.418000000000D+03 0.000000000000D+00
    2.000000000000D+00 0.000000000000D+00-9.778887033463D-09 5.940000000000D+02
    4.320180000000D+05 4.000000000000D+00
22 26  5 15  2  0  0.0-2.029817551374D-06 6.593836587854D-12 0.000000000000D+00
    5.800000000000D+01 1.007187500000D+02 4.096242053495D-09-2.816834527436D+00
    5.070120096207D-06 1.193228049669D-02 1.356564462185D-05 5.153733970642D+03
    4.392000000000D+05 7.078051567078D-08-1.964991915172D-01 8.940696716309D-08
    9.578637789169D-01 1.158125000000D+02-9.949974703242D-01-7.556029024652D-09
   -3.050127050035D-10 1.000000000000D+00 2.418000000000D+03 0.000000000000D+00
    2.000000000000D+00 0.000000000000D+00-1.117587089539D-08 5.800000000000D+01
    4.320180000000D+05 4.000000000000D+00
23 26  5 15  2  0  0.0 6.475443951786D-04 4.206412995700D-12 0.000000000000D+00
    8.900000000000D+01-7.759375000000D+01 3.610864692722D-09-3.329763361781D-01
   -3.943219780922D-06 6.189596955664D-03 1.187808811665D-05 5.153722261429D+03
    4.392000000000D+05 5.401670932770D-08 2.836253699934D+00 5.029141902924D-08
    9.889985289699D-01 1.670937500000D+02-2.743341104357D+00-7.597102164085D-09
    2.364384200378D-10 1.000000000000D+00 2.418000000000D+03 0.000000000000D+00
    2.000000000000D+00 0.000000000000D+00-8.381903171539D-09 6.010000000000D+02
    4.320230000000D+05 4.000000000000D+00
24 26  5 15  2  0  0.0 1.135328784585D-05 1.853095454862D-11 0.000000000000D+00
    7.600000000000D+01-3.490625000000D+01 5.841671900511D-09 1.038968216168D+00
   -1.799315214157D-06 1.807916793041D-02 5.830079317093D-06 5.153630887985D+03
    4.392000000000D+05-2.924352884293D-07-1.444844754829D+00 7.450580596924D-08
    9.345965569437D-01 2.598437500000D+02 1.146535429757D+00-8.954301554030D-09
   -5.571660653459D-10 1.000000000000D+00 2.418000000000D+03 0.000000000000D+00
    2.000000000000D+00 0.000000000000D+00 2.328306436539D-09 7.600000000000D+01
    4.320240000000D+05 4.000000000000D+00
